0 DELTA 1 DEB
1 37644U 78026JF  23285.90997951  .00004159  00000-0  18693-2 0  9994
2 37644  98.7001 174.8011 0054755 228.4220 131.2257 14.22089639 62664
0 DELTA 1 DEB
1 37646U 78026JH  23282.51990333  .00003399  00000-0  18989-2 0  9990
2 37646  99.2216 307.4055 0089824  63.9060 297.1319 14.09481073 50897
0 DELTA 1 DEB
1 37647U 78026JJ  23275.56533903  .00001126  00000-0  11182-2 0  9998
2 37647  98.8124  32.2896 0237788  78.8664 283.9118 13.68325503501188
0 DELTA 1 DEB
1 37648U 78026JK  23284.21146043  .00000889  00000-0  35119-3 0  9998
2 37648  98.6987 256.4407 0102263 320.9910  52.6681 14.28692089535946
0 DELTA 1 DEB
1 37649U 78026JL  23285.68442660  .00000111  00000-0  12695-3 0  9997
2 37649  98.9670 232.6707 0057155 183.0966 176.9846 13.87909281 36786
0 DELTA 1 DEB
1 37652U 78026JP  23279.62067968  .00002469  00000-0  12294-2 0  9994
2 37652  98.7138 231.5492 0028385  21.5088 338.7273 14.17675209  2352
0 DELTA 1 DEB
1 37653U 78026JQ  23285.80815022  .00000550  00000-0  37406-3 0  9996
2 37653  99.2273 283.2244 0037482 252.9073 231.5460 14.04122953523984
0 DELTA 1 DEB
1 37655U 78026JS  23285.20106675  .00000539  00000-0  34926-3 0  9990
2 37655  99.1477 265.6966 0013056 149.5121 210.6809 14.07126311 52709
0 DELTA 1 DEB
1 37656U 78026JT  23285.14012406  .00000874  00000-0  51609-3 0  9991
2 37656  99.0605 256.2215 0017710 252.4782 107.4453 14.10469706 54165
0 DELTA 1 DEB
1 37657U 78026JU  23283.27903000  .00003060  00000-0  12009-2 0  9993
2 37657  98.8096 294.1791 0022054 312.7831  47.1496 14.29979149979956
0 DELTA 1 DEB
1 37658U 78026JV  23285.46667972  .00000730  00000-0  53884-3 0  9990
2 37658  99.2890 163.5225 0066296 210.7023 325.7072 13.97762731 35916
0 DELTA 1 DEB
1 37659U 78026JW  23280.97876688  .00000246  00000-0  28000-3 0  9992
2 37659  98.8406 346.7861 0157476  55.0351 306.5473 13.73513490955217
0 DELTA 1 DEB
1 37661U 78026JY  23285.75082608  .00000462  00000-0  75537-3 0  9994
2 37661  98.9051 261.9031 0332082  83.2762 280.6035 13.32126567 22054
0 DELTA 1 DEB
1 37662U 78026JZ  23283.78392571  .00001310  00000-0  70380-3 0  9993
2 37662  99.0222 276.6843 0035184 357.0010   3.0946 14.14433012527956
0 DELTA 1 DEB
1 37663U 78026KA  23283.25629160  .00001186  00000-0  58404-3 0  9997
2 37663  98.9551 295.0246 0039087  38.5556 321.8399 14.19121337 64536
0 DELTA 1 DEB
1 37664U 78026KB  23284.89011396  .00000199  00000-0  19553-3 0  9990
2 37664  98.8709 157.9575 0077186  82.2327 293.5905 13.88435048195429
0 DELTA 1 DEB
1 37665U 78026KC  23283.54202811  .00005785  00000-0  22559-2 0  9991
2 37665  99.1058  23.3019 0026549  56.7541 303.6179 14.29882603467619
0 DELTA 1 DEB
1 37666U 78026KD  23278.80666831  .00001527  00000-0  75997-3 0  9996
2 37666  98.9939 284.0384 0036438 261.0932  98.6117 14.18226534 68746
0 DELTA 1 DEB
1 37667U 78026KE  23284.84096908  .00012244  00000-0  23188-2 0  9992
2 37667  98.3247 290.5229 0040114  54.2293 306.2628 14.63933639546939
0 DELTA 1 DEB
1 37668U 78026KF  23283.27540834  .00000521  00000-0  29994-3 0  9998
2 37668  99.0521 295.2589 0039391 314.4450 108.2893 14.13324234 74306
0 DELTA 1 DEB
1 37671U 78026KJ  23285.77014818  .00002104  00000-0  89995-3 0  9993
2 37671  98.8709 295.1124 0030018 116.7878 243.6377 14.25798224532478
0 FENGYUN 1C DEB
1 37683U 99025EKY 23277.98645876  .00002832  00000-0  23873-2 0  9996
2 37683  97.9988   3.7130 0610425 352.5728 185.9997 13.25384111186207
0 FENGYUN 1C DEB
1 37685U 99025ELA 23283.73092801  .00012296  00000-0  62448-2 0  9998
2 37685  98.0003 250.0667 0189280 231.8210 252.2041 14.07189076698958
0 FENGYUN 1C DEB
1 37686U 99025ELB 23282.54689714  .00001249  00000-0  16453-2 0  9993
2 37686  99.0954  18.0537 0399655 210.0776 161.5718 13.34242292693528
0 FENGYUN 1C DEB
1 37687U 99025ELC 23285.59666961  .00003935  00000-0  26876-2 0  9995
2 37687  98.2041  56.0225 0398836   0.7098  55.5103 13.67897100723528
0 FENGYUN 1C DEB
1 37688U 99025ELD 23285.27930678  .00020745  00000-0  77569-2 0  9993
2 37688  99.0235  36.6832 0043643 247.7940 111.8609 14.31269177771803
0 FENGYUN 1C DEB
1 37690U 99025ELF 23285.37584672  .00003106  00000-0  17211-2 0  9996
2 37690  98.8239 328.4787 0042114  36.2372  29.5259 14.11525529525650
0 FENGYUN 1C DEB
1 37691U 99025ELG 23280.48542697  .00035772  00000-0  69879-2 0  9996
2 37691  98.4258 188.8906 0416948  23.2426 338.7015 14.19655371741758
0 FENGYUN 1C DEB
1 37694U 99025ELK 23283.16244507  .00012499  00000-0  68442-2 0  9992
2 37694  98.2010  47.6397 0172342 220.4146 265.0351 14.04722909704950
0 FENGYUN 1C DEB
1 37695U 99025ELL 23278.67443719  .00005127  00000-0  32230-2 0  9995
2 37695  98.2133  72.0930 0485718 228.1242 196.3224 13.59011898783722
0 FENGYUN 1C DEB
1 37701U 99025ELS 23276.01471360  .00013129  00000-0  83973-2 0  9993
2 37701  97.6496 196.0857 0298294 315.7492 100.5749 13.83903290649184
0 FENGYUN 1C DEB
1 37703U 99025ELU 23277.60649689  .00010229  00000-0  37761-2 0  9994
2 37703  99.0830 186.9982 0051051 138.5349 341.4957 14.31917191763465
0 FENGYUN 1C DEB
1 37704U 99025ELV 23280.74881466  .00001742  00000-0  17215-2 0  9997
2 37704  98.3685 207.9813 0247700 149.8227 245.7173 13.66905043514618
0 FENGYUN 1C DEB
1 37707U 99025ELY 23284.35485250  .00006402  00000-0  14658-2 0  9998
2 37707 100.2242 107.1837 0161648 160.8629 320.3647 14.48322311740502
0 FENGYUN 1C DEB
1 37708U 99025ELZ 23286.56328772  .00013507  00000-0  23655-2 0  9990
2 37708  98.4352  31.0826 0304980  57.1808 305.8361 14.41797368807226
0 FENGYUN 1C DEB
1 37712U 99025EMD 23284.56475787  .00003902  00000-0  14091-2 0  9994
2 37712  98.7329  40.7409 0085383 167.7849 255.2211 14.32103900790741
0 FENGYUN 1C DEB
1 37714U 99025EMF 23285.70383660  .00008089  00000-0  38222-2 0  9994
2 37714  98.8914  15.7554 0061083 212.5075 147.2333 14.19001607462251
0 FENGYUN 1C DEB
1 37715U 99025EMG 23285.54043433  .00001138  00000-0  85328-3 0  9996
2 37715  98.9926 304.7564 0117751 123.0826  30.0835 13.93277182467639
0 FENGYUN 1C DEB
1 37716U 99025EMH 23280.99210741  .00005020  00000-0  23013-2 0  9995
2 37716  98.7508 336.3827 0035400  10.0832 110.2636 14.21422314492201
0 FENGYUN 1C DEB
1 37717U 99025EMJ 23284.94048792  .00015119  00000-0  31810-2 0  9994
2 37717  98.7347 173.2724 0111815  67.0135 357.5131 14.55735956777376
0 FENGYUN 1C DEB
1 37719U 99025EML 23280.54126003  .00009572  00000-0  29680-2 0  9998
2 37719  99.4654 197.3500 0058760  85.9846  88.5369 14.40365288738713
0 PSLV R/B
1 37747U 11034B   23284.45721900  .00005247  00000-0  12114-2 0  9993
2 37747  18.0109  40.2559 5895420  25.3993 354.4961  4.18980945180838
0 SPEKTR R
1 37755U 11037A   23285.66349873  .00000356  00000-0  00000-0 0  9999
2 37755  49.1870 109.3015 6516370 219.4032   6.8333  0.10563476  4881
0 COSMOS 382 DEB
1 37784U 70103H   23285.51383007 -.00002896  00000-0 -73850+0 0  9996
2 37784  55.8936 319.5355 1333059 130.8542  13.4413  8.42810288268862
0 BREEZE-M DEB (ADAPTOR)
1 37787U 11035E   23285.32961840  .00000179  00000-0  00000+0 0  9991
2 37787  23.6055 233.5367 6171885 244.2075 127.4724  2.05995986 90193
0 TACSAT 4
1 37818U 11052A   23285.95555726  .00006919  00000-0  24300-2 0  9996
2 37818  62.8634  63.9594 4698162 252.8709  52.0078  6.04833048265048
0 COSMOS 2474 (GLONASS)
1 37829U 11055A   23285.63147975  .00000081  00000-0  00000+0 0  9991
2 37829  64.8064 106.0201 0009712 233.2652 131.4059  2.13101766 93610
0 FREGAT R/B
1 37830U 11055B   23285.32326233  .00000089  00000-0  00000-0 0  9994
2 37830  64.7071 111.3590 0074009 102.9136  84.5302  2.09556971 92041
0 JUGNU
1 37839U 11058B   23285.62337362  .00000798  00000-0  28058-3 0  9997
2 37839  19.9599 130.3860 0018835  74.4777 321.8237 14.13029684620525
0 PSLV R/B
1 37842U 11058E   23286.48414800  .00000725  00000-0  19905-3 0  9990
2 37842  19.7931  78.8072 0059696 195.5254 164.3314 14.21347437624363
0 BREEZE-M R/B
1 37844U 11059B   23285.56353782 -.00000194  00000-0  00000+0 0  9995
2 37844  30.7282 290.3892 6620786 298.1633 303.5267  2.27325524 99455
0 GALILEO-PFM
1 37846U 11060A   23284.83818171 -.00000095  00000-0  00000-0 0  9997
2 37846  57.1128   8.2849 0000417  40.9336 319.1064  1.70476083 74429
0 COSMOS 1331 DEB
1 37863U 82001E   23283.22768380  .00000779  00000-0  25783-3 0  9993
2 37863  74.0437 116.6264 0023715 299.8472  60.0326 14.39432244561330
0 COSMOS 1417 DEB
1 37865U 82102D   23285.68438008  .00000173  00000-0  16266-3 0  9994
2 37865  82.9663 259.7034 0033033 269.7411  89.9960 13.75827617451285
0 COSMOS 2477 (GLONASS)
1 37868U 11064B   23285.72969826  .00000081  00000-0  00000-0 0  9992
2 37868  64.7942 106.0995 0018550 230.2178  74.4582  2.13101716 92900
0 COSMOS 2475 (GLONASS)
1 37869U 11064C   23285.90933236  .00000080  00000-0  00000+0 0  9997
2 37869  64.8007 106.1057 0022468 248.8188 152.1879  2.13101967 92937
0 BREEZE-M R/B
1 37870U 11064D   23285.90147296  .00000041  00000-0  00000+0 0  9999
2 37870  65.1310  85.6410 0261139 303.6080  52.1239  2.25566989 98325
0 SL-12 DEB
1 37884U 87079BP  23275.35479023  .00002785  00000-0  35620-2 0  9993
2 37884  65.2545  41.3259 5081147 298.0819  20.0232  5.28523477212407
0 SL-8 DEB
1 37886U 71114E   23285.35548067  .00000505  00000-0  17227-3 0  9996
2 37886  74.0274 155.0741 0023730  15.6439 344.5443 14.38844828540437
0 NIMBUS 2 DEB
1 37893U 66040AY  23285.70920297  .00003322  00000-0  57031-2 0  9990
2 37893 100.5109 196.0133 0069714 356.6173  32.3548 13.44348564552794
0 FENGYUN 1C DEB
1 37899U 99025EMY 23282.94665864  .00005985  00000-0  53398-2 0  9993
2 37899  98.8343 180.2619 0222443 305.0840  52.9631 13.74275703447265
0 FENGYUN 1C DEB
1 37900U 99025EMZ 23285.15729933  .00004066  00000-0  25233-2 0  9996
2 37900 102.3107  82.8707 0237339 358.1909   1.8359 13.92998207487385
0 FENGYUN 1C DEB
1 37902U 99025ENB 23282.29007111  .00002286  00000-0  27235-2 0  9993
2 37902  98.6931 230.6456 0333114 188.8390 170.6787 13.47097526522433
0 FENGYUN 1C DEB
1 37905U 99025ENE 23260.41640887  .00002312  00000-0  17628-2 0  9994
2 37905  99.2707 317.6889 0135721 112.5593 248.9993 13.90331876493716
